{"type": "FeatureCollection", "features": [ {"type": "Feature", "properties": {"norad_id": 67093, "name": "STARLINK-35784", "group": "last-30-days", "lat": -7.389583100341267, "lon": -154.83745377933636, "alt_km": 355.970785320138, "timestamp": "2025-12-27T12:55:13.198557+00:00", "meta": {"OBJECT_NAME": "STARLINK-35784", "OBJECT_ID": "2025-298U", "EPOCH": "2025-12-27T06:00:02.000160", "MEAN_MOTION": 15.73188245, "ECCENTRICITY": 0.0003364, "INCLINATION": 69.9991, "RA_OF_ASC_NODE": 208.6837, "ARG_OF_PERICENTER": 275.4546, "MEAN_ANOMALY": 244.9316, "EPHEMERIS_TYPE": 0, "CLASSIFICATION_TYPE": "U", "NORAD_CAT_ID": 67093, "ELEMENT_SET_NO": 999, "REV_AT_EPOCH": 331, "BSTAR": -0.014616875, "MEAN_MOTION_DOT": -0.01772524, "MEAN_MOTION_DDOT": 0}, "tle": {"line1": "1 67093U 25298U   25361.25002315 -.01772524  00000+0 -14617-1 0  9995", "line2": "2 67093  69.9991 208.6837 0003364 275.4546 244.9316 15.73188245  3313"}}, "geometry": {"type": "Point", "coordinates": [-154.83745377933636, -7.389583100341267]}}, {"type": "Feature", "properties": {"norad_id": 67094, "name": "STARLINK-36202", "group": "last-30-days", "lat": -5.4315548956778965, "lon": -154.11703655224443, "alt_km": 355.8249800310732, "timestamp": "2025-12-27T12:55:13.198569+00:00", "meta": {"OBJECT_NAME": "STARLINK-36202", "OBJECT_ID": "2025-298V", "EPOCH": "2025-12-27T06:00:02.000160", "MEAN_MOTION": 15.73179846, "ECCENTRICITY": 0.00033132, "INCLINATION": 69.9991, "RA_OF_ASC_NODE": 208.6812, "ARG_OF_PERICENTER": 276.2068, "MEAN_ANOMALY": 246.2753, "EPHEMERIS_TYPE": 0, "CLASSIFICATION_TYPE": "U", "NORAD_CAT_ID": 67094, "ELEMENT_SET_NO": 999, "REV_AT_EPOCH": 331, "BSTAR": -0.014649161, "MEAN_MOTION_DOT": -0.01775347, "MEAN_MOTION_DDOT": 0}, "tle": {"line1": "1 67094U 25298V   25361.25002315 -.01775347  00000+0 -14649-1 0  9997", "line2": "2 67094  69.9991 208.6812 0003313 276.2068 246.2753 15.73179846  3316"}}, "geometry": {"type": "Point", "coordinates": [-154.11703655224443, -5.4315548956778965]}}, {"type": "Feature", "properties": {"norad_id": 67095, "name": "STARLINK-36227", "group": "last-30-days", "lat": -3.5481609542422086, "lon": -153.4290515904398, "alt_km": 355.66235766967657, "timestamp": "2025-12-27T12:55:13.198580+00:00", "meta": {"OBJECT_NAME": "STARLINK-36227", "OBJECT_ID": "2025-298W", "EPOCH": "2025-12-27T06:00:02.000160", "MEAN_MOTION": 15.73175832, "ECCENTRICITY": 0.00033141, "INCLINATION": 69.9988, "RA_OF_ASC_NODE": 208.6786, "ARG_OF_PERICENTER": 276.6552, "MEAN_ANOMALY": 247.8359, "EPHEMERIS_TYPE": 0, "CLASSIFICATION_TYPE": "U", "NORAD_CAT_ID": 67095, "ELEMENT_SET_NO": 999, "REV_AT_EPOCH": 325, "BSTAR": -0.014648053, "MEAN_MOTION_DOT": -0.0177496, "MEAN_MOTION_DDOT": 0}, "tle": {"line1": "1 67095U 25298W   25361.25002315 -.01774960  00000+0 -14648-1 0  9997", "line2": "2 67095  69.9988 208.6786 0003314 276.6552 247.8359 15.73175832  3259"}}, "geometry": {"type": "Point", "coordinates": [-153.4290515904398, -3.5481609542422086]}}, {"type": "Feature", "properties": {"norad_id": 67096, "name": "STARLINK-36228", "group": "last-30-days", "lat": -1.814938116734486, "lon": -152.79796124136723, "alt_km": 355.51868441321676, "timestamp": "2025-12-27T12:55:13.198590+00:00", "meta": {"OBJECT_NAME": "STARLINK-36228", "OBJECT_ID": "2025-298X", "EPOCH": "2025-12-27T06:00:02.000160", "MEAN_MOTION": 15.73177283, "ECCENTRICITY": 0.00033916, "INCLINATION": 69.9991, "RA_OF_ASC_NODE": 208.6768, "ARG_OF_PERICENTER": 276.0095, "MEAN_ANOMALY": 250.322, "EPHEMERIS_TYPE": 0, "CLASSIFICATION_TYPE": "U", "NORAD_CAT_ID": 67096, "ELEMENT_SET_NO": 999, "REV_AT_EPOCH": 325, "BSTAR": -0.014604726, "MEAN_MOTION_DOT": -0.01770523, "MEAN_MOTION_DDOT": 0}, "tle": {"line1": "1 67096U 25298X   25361.25002315 -.01770523  00000+0 -14605-1 0  9992", "line2": "2 67096  69.9991 208.6768 0003391 276.0095 250.3220 15.73177283  3253"}}, "geometry": {"type": "Point", "coordinates": [-152.79796124136723, -1.814938116734486]}}, {"type": "Feature", "properties": {"norad_id": 67097, "name": "STARLINK-36222", "group": "last-30-days", "lat": 0.041089155522206086, "lon": -152.12435974072164, "alt_km": 355.4149154393126, "timestamp": "2025-12-27T12:55:13.198600+00:00", "meta": {"OBJECT_NAME": "STARLINK-36222", "OBJECT_ID": "2025-298Y", "EPOCH": "2025-12-27T06:00:02.000160", "MEAN_MOTION": 15.73172865, "ECCENTRICITY": 0.00033816, "INCLINATION": 69.999, "RA_OF_ASC_NODE": 208.6741, "ARG_OF_PERICENTER": 274.8123, "MEAN_ANOMALY": 253.4984, "EPHEMERIS_TYPE": 0, "CLASSIFICATION_TYPE": "U", "NORAD_CAT_ID": 67097, "ELEMENT_SET_NO": 999, "REV_AT_EPOCH": 325, "BSTAR": -0.014600995, "MEAN_MOTION_DOT": -0.0176982, "MEAN_MOTION_DDOT": 0}, "tle": {"line1": "1 67097U 25298Y   25361.25002315 -.01769820  00000+0 -14601-1 0  9997", "line2": "2 67097  69.9990 208.6741 0003381 274.8123 253.4984 15.73172865  3253"}}, "geometry": {"type": "Point", "coordinates": [-152.12435974072164, 0.041089155522206086]}}, {"type": "Feature", "properties": {"norad_id": 67098, "name": "STARLINK-36205", "group": "last-30-days", "lat": 1.9965909116349376, "lon": -151.41403648200745, "alt_km": 355.2474600537407, "timestamp": "2025-12-27T12:55:13.198610+00:00", "meta": {"OBJECT_NAME": "STARLINK-36205", "OBJECT_ID": "2025-298Z", "EPOCH": "2025-12-27T06:00:02.000160", "MEAN_MOTION": 15.7316943, "ECCENTRICITY": 0.00032966, "INCLINATION": 69.9987, "RA_OF_ASC_NODE": 208.6718, "ARG_OF_PERICENTER": 275.085, "MEAN_ANOMALY": 255.3131, "EPHEMERIS_TYPE": 0, "CLASSIFICATION_TYPE": "U", "NORAD_CAT_ID": 67098, "ELEMENT_SET_NO": 999, "REV_AT_EPOCH": 331, "BSTAR": -0.014659098, "MEAN_MOTION_DOT": -0.01775688, "MEAN_MOTION_DDOT": 0}, "tle": {"line1": "1 67098U 25298Z   25361.25002315 -.01775688  00000+0 -14659-1 0  9990", "line2": "2 67098  69.9987 208.6718 0003296 275.0850 255.3131 15.73169430  3315"}}, "geometry": {"type": "Point", "coordinates": [-151.41403648200745, 1.9965909116349376]}}, {"type": "Feature", "properties": {"norad_id": 67099, "name": "STARLINK-36193", "group": "last-30-days", "lat": -23.87956252263126, "lon": -161.38910832538727, "alt_km": 371.9418790209511, "timestamp": "2025-12-27T12:55:13.198622+00:00", "meta": {"OBJECT_NAME": "STARLINK-36193", "OBJECT_ID": "2025-298AA", "EPOCH": "2025-12-27T06:00:02.000160", "MEAN_MOTION": 15.68469222, "ECCENTRICITY": 0.00032463, "INCLINATION": 69.9997, "RA_OF_ASC_NODE": 208.698, "ARG_OF_PERICENTER": 273.1295, "MEAN_ANOMALY": 234.7466, "EPHEMERIS_TYPE": 0, "CLASSIFICATION_TYPE": "U", "NORAD_CAT_ID": 67099, "ELEMENT_SET_NO": 999, "REV_AT_EPOCH": 325, "BSTAR": -0.025510448, "MEAN_MOTION_DOT": -0.02524138, "MEAN_MOTION_DDOT": 0}, "tle": {"line1": "1 67099U 25298AA  25361.25002315 -.02524138  00000+0 -25510-1 0  9992", "line2": "2 67099  69.9997 208.6980 0003246 273.1295 234.7466 15.68469222  3256"}}, "geometry": {"type": "Point", "coordinates": [-161.38910832538727, -23.87956252263126]}}, {"type": "Feature", "properties": {"norad_id": 67100, "name": "STARLINK-36215", "group": "last-30-days", "lat": 7.213054053557548, "lon": -149.50608959950927, "alt_km": 354.68361600957087, "timestamp": "2025-12-27T12:55:13.198634+00:00", "meta": {"OBJECT_NAME": "STARLINK-36215", "OBJECT_ID": "2025-298AB", "EPOCH": "2025-12-27T06:00:02.000160", "MEAN_MOTION": 15.73177639, "ECCENTRICITY": 0.00033105, "INCLINATION": 69.9986, "RA_OF_ASC_NODE": 208.665, "ARG_OF_PERICENTER": 275.4102, "MEAN_ANOMALY": 260.5303, "EPHEMERIS_TYPE": 0, "CLASSIFICATION_TYPE": "U", "NORAD_CAT_ID": 67100, "ELEMENT_SET_NO": 999, "REV_AT_EPOCH": 331, "BSTAR": -0.014625113, "MEAN_MOTION_DOT": -0.01772638, "MEAN_MOTION_DDOT": 0}, "tle": {"line1": "1 67100U 25298AB  25361.25002315 -.01772638  00000+0 -14625-1 0  9999", "line2": "2 67100  69.9986 208.6650 0003310 275.4102 260.5303 15.73177639  3313"}}, "geometry": {"type": "Point", "coordinates": [-149.50608959950927, 7.213054053557548]}}, {"type": "Feature", "properties": {"norad_id": 67101, "name": "STARLINK-36200", "group": "last-30-days", "lat": 3.700679479791206, "lon": -150.79333319351792, "alt_km": 355.13786744812296, "timestamp": "2025-12-27T12:55:13.198645+00:00", "meta": {"OBJECT_NAME": "STARLINK-36200", "OBJECT_ID": "2025-298AC", "EPOCH": "2025-12-27T06:00:02.000160", "MEAN_MOTION": 15.73172461, "ECCENTRICITY": 0.00033472, "INCLINATION": 69.9991, "RA_OF_ASC_NODE": 208.6701, "ARG_OF_PERICENTER": 273.3288, "MEAN_ANOMALY": 258.8776, "EPHEMERIS_TYPE": 0, "CLASSIFICATION_TYPE": "U", "NORAD_CAT_ID": 67101, "ELEMENT_SET_NO": 999, "REV_AT_EPOCH": 331, "BSTAR": -0.014625174, "MEAN_MOTION_DOT": -0.01772332, "MEAN_MOTION_DDOT": 0}, "tle": {"line1": "1 67101U 25298AC  25361.25002315 -.01772332  00000+0 -14625-1 0  9991", "line2": "2 67101  69.9991 208.6701 0003347 273.3288 258.8776 15.73172461  3311"}}, "geometry": {"type": "Point", "coordinates": [-150.79333319351792, 3.700679479791206]}}, {"type": "Feature", "properties": {"norad_id": 67102, "name": "STARLINK-36255", "group": "last-30-days", "lat": -42.23498030148456, "lon": 149.04440565203996, "alt_km": 347.1408364705612, "timestamp": "2025-12-27T12:55:13.198656+00:00", "meta": {"OBJECT_NAME": "STARLINK-36255", "OBJECT_ID": "2025-299A", "EPOCH": "2025-12-27T06:00:02.000160", "MEAN_MOTION": 15.760255, "ECCENTRICITY": 0.0001776, "INCLINATION": 42.9986, "RA_OF_ASC_NODE": 227.7816, "ARG_OF_PERICENTER": 278.1152, "MEAN_ANOMALY": 164.2631, "EPHEMERIS_TYPE": 0, "CLASSIFICATION_TYPE": "U", "NORAD_CAT_ID": 67102, "ELEMENT_SET_NO": 999, "REV_AT_EPOCH": 314, "BSTAR": -0.013427774, "MEAN_MOTION_DOT": -0.01877982, "MEAN_MOTION_DDOT": 0}, "tle": {"line1": "1 67102U 25299A   25361.25002315 -.01877982  00000+0 -13428-1 0  9990", "line2": "2 67102  42.9986 227.7816 0001776 278.1152 164.2631 15.76025500  3148"}}, "geometry": {"type": "Point", "coordinates": [149.04440565203996, -42.23498030148456]}}]}